NORAD_CAT_ID,OBJECT_NAME,OBJECT_TYPE,EPOCH,MEAN_MOTION,ECCENTRICITY,INCLINATION,RA_OF_ASC_NODE,ARG_OF_PERICENTER,MEAN_ANOMALY,BSTAR,MEAN_MOTION_DOT,MEAN_MOTION_DDOT,TLE_LINE0,TLE_LINE1,TLE_LINE2,SEMIMAJOR_AXIS,PERIOD,APOGEE,PERIGEE,DECAYED
53730.0,STARLINK-4641,PAYLOAD,2024-02-20 21:48:49,15.08839067,0.0001443,53.2186,11.0703,86.9244,273.1914,-2.9452e-06,-3.35e-06,0.0,0 STARLINK-4641,1 53730U 22107AG  24051.90890671 -.00000335  00000-0 -29452-5 0  9992,2 53730  53.2186  11.0703 0001443  86.9244 273.1914 15.08839067 81667,6917.883,95.438,540.746,538.75,0.0
53730.0,STARLINK-4641,PAYLOAD,2024-02-21 04:10:21,15.088478,0.0001387,53.2191,9.8841,81.8422,278.2728,0.00012775,1.746e-05,0.0,0 STARLINK-4641,1 53730U 22107AG  24052.17385735  .00001746  00000-0  12775-3 0  9995,2 53730  53.2191   9.8841 0001387  81.8422 278.2728 15.08847800 81102,6917.857,95.437,540.681,538.762,0.0
53730.0,STARLINK-4641,PAYLOAD,2024-02-21 13:42:40,15.0884585,0.000141,53.2186,8.0988,88.2678,271.8476,-1.9346e-05,-5.96e-06,0.0,0 STARLINK-4641,1 53730U 22107AG  24052.57129974 -.00000596  00000-0 -19346-4 0  9996,2 53730  53.2186   8.0988 0001410  88.2678 271.8476 15.08845850 81764,6917.863,95.437,540.703,538.752,0.0
53730.0,STARLINK-4641,PAYLOAD,2024-02-22 04:01:09,15.0882872,0.0001316,53.2183,5.4231,82.2589,277.8553,3.4044e-05,2.54e-06,0.0,0 STARLINK-4641,1 53730U 22107AG  24053.16747389  .00000254  00000-0  34044-4 0  9999,2 53730  53.2183   5.4231 0001316  82.2589 277.8553 15.08828720 81256,6917.915,95.438,540.69,538.869,0.0
53730.0,STARLINK-4641,PAYLOAD,2024-02-22 13:33:28,15.08836647,0.0001455,53.2193,3.639,85.8225,274.2933,1.233e-05,-9.2e-07,0.0,0 STARLINK-4641,1 53730U 22107AG  24053.56491119 -.00000092  00000-0  12330-4 0  9995,2 53730  53.2193   3.6390 0001455  85.8225 274.2933 15.08836647 81916,6917.891,95.438,540.762,538.749,0.0
53730.0,STARLINK-4641,PAYLOAD,2024-02-23 02:16:32,15.08849906,0.0001399,53.2186,1.2594,85.5589,274.5563,3.9874e-05,3.47e-06,0.0,0 STARLINK-4641,1 53730U 22107AG  24054.09482275  .00000347  00000-0  39874-4 0  9991,2 53730  53.2186   1.2594 0001399  85.5589 274.5563 15.08849906 81391,6917.85,95.437,540.683,538.747,0.0
53730.0,STARLINK-4641,PAYLOAD,2024-02-23 13:24:14,15.08843815,0.0001847,53.2194,359.1782,77.427,282.6929,6.4441e-05,7.38e-06,0.0,0 STARLINK-4641,1 53730U 22107AG  24054.55850641  .00000738  00000-0  64441-4 0  9990,2 53730  53.2194 359.1782 0001847  77.4270 282.6929 15.08843815 82063,6917.869,95.437,541.011,538.456,0.0
53730.0,STARLINK-4641,PAYLOAD,2024-02-24 03:42:43,15.0883314,0.0001435,53.2182,356.5002,75.2383,284.8768,2.2929e-05,7.7e-07,0.0,0 STARLINK-4641,1 53730U 22107AG  24055.15467567  .00000077  00000-0  22929-4 0  9999,2 53730  53.2182 356.5002 0001435  75.2383 284.8768 15.08833140 81558,6917.901,95.438,540.759,538.774,0.0
53730.0,STARLINK-4641,PAYLOAD,2024-02-24 13:15:02,15.08837286,0.0001302,53.2177,354.716,83.3887,276.7254,6.9354e-05,8.16e-06,0.0,0 STARLINK-4641,1 53730U 22107AG  24055.55211306  .00000816  00000-0  69354-4 0  9995,2 53730  53.2177 354.7160 0001302  83.3887 276.7254 15.08837286 82218,6917.889,95.438,540.654,538.853,0.0
53730.0,STARLINK-4641,PAYLOAD,2024-02-25 05:08:52,15.08854571,0.0001323,53.2189,351.7427,84.4542,275.6601,3.2536e-05,2.3e-06,0.0,0 STARLINK-4641,1 53730U 22107AG  24056.21450187  .00000230  00000-0  32536-4 0  9993,2 53730  53.2189 351.7427 0001323  84.4542 275.6601 15.08854571 81711,6917.836,95.437,540.616,538.786,0.0
53730.0,STARLINK-4641,PAYLOAD,2024-02-25 13:05:48,15.08849752,0.000162,53.2203,350.2572,70.4182,289.6985,-2.9284e-06,-3.35e-06,0.0,0 STARLINK-4641,1 53730U 22107AG  24056.54570534 -.00000335  00000-0 -29284-5 0  9993,2 53730  53.2203 350.2572 0001620  70.4182 289.6985 15.08849752 81768,6917.851,95.437,540.836,538.595,0.0
53730.0,STARLINK-4641,PAYLOAD,2024-02-25 22:38:08,15.08838645,0.0001529,53.2214,348.4734,68.2641,291.8514,0.00014973,2.096e-05,0.0,0 STARLINK-4641,1 53730U 22107AG  24056.94314908  .00002096  00000-0  14973-3 0  9999,2 53730  53.2214 348.4734 0001529  68.2641 291.8514 15.08838645 82428,6917.885,95.438,540.807,538.692,0.0
53730.0,STARLINK-4641,PAYLOAD,2024-02-26 04:59:39,15.0885504,0.0001452,53.2198,347.2794,90.9091,269.2068,0.0001767,2.526e-05,0.0,0 STARLINK-4641,1 53730U 22107AG  24057.20809624  .00002526  00000-0  17670-3 0  9998,2 53730  53.2198 347.2794 0001452  90.9091 269.2068 15.08855040 81866,6917.834,95.437,540.704,538.695,0.0
53730.0,STARLINK-4641,PAYLOAD,2024-02-26 22:28:55,15.0883503,0.000126,53.2212,344.0113,77.4484,282.6649,-4.8851e-05,-1.065e-05,0.0,0 STARLINK-4641,1 53730U 22107AG  24057.93675560 -.00001065  00000-0 -48851-4 0  9993,2 53730  53.2212 344.0113 0001260  77.4484 282.6649 15.08835030 82576,6917.896,95.438,540.632,538.889,0.0
53730.0,STARLINK-4641,PAYLOAD,2024-02-27 01:39:41,15.08834902,0.0001636,53.2192,343.4176,85.2419,274.876,2.1557e-05,5.5e-07,0.0,0 STARLINK-4641,1 53730U 22107AG  24058.06923468  .00000055  00000-0  21557-4 0  9991,2 53730  53.2192 343.4176 0001636  85.2419 274.8760 15.08834902 81996,6917.896,95.438,540.893,538.629,0.0
53730.0,STARLINK-4641,PAYLOAD,2024-02-27 04:50:28,15.08836238,0.0001539,53.2202,342.8206,84.246,275.8708,4.0018e-05,3.49e-06,0.0,0 STARLINK-4641,1 53730U 22107AG  24058.20171337  .00000349  00000-0  40018-4 0  9996,2 53730  53.2202 342.8206 0001539  84.2460 275.8708 15.08836238 82619,6917.892,95.438,540.822,538.692,0.0
53730.0,STARLINK-4641,PAYLOAD,2024-02-27 22:19:42,15.0884183,0.0001597,53.2191,339.5487,99.1246,260.9927,2.4275e-05,9.8e-07,0.0,0 STARLINK-4641,1 53730U 22107AG  24058.93035162  .00000098  00000-0  24275-4 0  9999,2 53730  53.2191 339.5487 0001597  99.1246 260.9927 15.08841830 82725,6917.875,95.437,540.845,538.635,0.0
53730.0,STARLINK-4641,PAYLOAD,2024-02-27 23:55:05,15.08843113,0.0001608,53.2191,339.2514,97.0323,263.0852,3.585e-05,2.83e-06,0.0,0 STARLINK-4641,1 53730U 22107AG  24058.99659087  .00000283  00000-0  35850-4 0  9990,2 53730  53.2191 339.2514 0001608  97.0323 263.0852 15.08843113 82131,6917.871,95.437,540.848,538.623,0.0
53730.0,STARLINK-4641,PAYLOAD,2024-02-28 11:02:47,15.08842408,0.0001456,53.218,337.1696,89.4207,270.6952,2.0673e-05,4.1e-07,0.0,0 STARLINK-4641,1 53730U 22107AG  24059.46027108  .00000041  00000-0  20673-4 0  9995,2 53730  53.2180 337.1696 0001456  89.4207 270.6952 15.08842408 82809,6917.873,95.437,540.745,538.731,0.0
53730.0,STARLINK-4641,PAYLOAD,2024-02-28 18:59:43,15.08833023,0.0001562,53.2184,335.6841,96.4674,263.6496,6.8932e-05,8.09e-06,0.0,0 STARLINK-4641,1 53730U 22107AG  24059.79147775  .00000809  00000-0  68932-4 0  9996,2 53730  53.2184 335.6841 0001562  96.4674 263.6496 15.08833023 82259,6917.902,95.438,540.847,538.686,0.0
53730.0,STARLINK-4641,PAYLOAD,2024-02-28 22:10:29,15.08837315,0.0001644,53.2199,335.0937,107.9563,252.1608,0.00013272,1.825e-05,0.0,0 STARLINK-4641,1 53730U 22107AG  24059.92395576  .00001825  00000-0  13272-3 0  9990,2 53730  53.2199 335.0937 0001644 107.9563 252.1608 15.08837315 82875,6917.889,95.438,540.891,538.616,0.0
53730.0,STARLINK-4641,PAYLOAD,2024-02-29 04:32:02,15.0884093,0.0001497,53.2189,333.899,103.2877,256.8282,0.00018713,2.692e-05,0.0,0 STARLINK-4641,1 53730U 22107AG  24060.18891248  .00002692  00000-0  18713-3 0  9995,2 53730  53.2189 333.8990 0001497 103.2877 256.8282 15.08840930 82317,6917.878,95.437,540.778,538.707,0.0
53730.0,STARLINK-4641,PAYLOAD,2024-02-29 10:53:34,15.08840038,0.0001426,53.2186,332.7095,90.9336,269.1819,0.00017783,2.543e-05,0.0,0 STARLINK-4641,1 53730U 22107AG  24060.45387452  .00002543  00000-0  17783-3 0  9993,2 53730  53.2186 332.7095 0001426  90.9336 269.1819 15.08840038 82954,6917.88,95.438,540.732,538.759,0.0
53730.0,STARLINK-4641,PAYLOAD,2024-02-29 22:01:16,15.08835428,0.0001644,53.2189,330.6301,102.8374,257.2801,-4.4178e-05,-9.91e-06,0.0,0 STARLINK-4641,1 53730U 22107AG  24060.91755770 -.00000991  00000-0 -44178-4 0  9992,2 53730  53.2189 330.6301 0001644 102.8374 257.2801 15.08835428 83026,6917.894,95.438,540.897,538.622,0.0
53730.0,STARLINK-4641,PAYLOAD,2024-03-01 01:12:03,15.08838718,0.0001751,53.2201,330.0352,101.3491,258.7698,3.0426e-05,1.96e-06,0.0,0 STARLINK-4641,1 53730U 22107AG  24061.05003937  .00000196  00000-0  30426-4 0  9995,2 53730  53.2201 330.0352 0001751 101.3491 258.7698 15.08838718 82444,6917.884,95.438,540.961,538.538,0.0
53730.0,STARLINK-4641,PAYLOAD,2024-03-01 10:44:23,15.08824526,0.0001282,53.2189,328.2492,83.0929,277.0209,-5.8795e-05,-1.223e-05,0.0,0 STARLINK-4641,1 53730U 22107AG  24061.44749294 -.00001223  00000-0 -58795-4 0  9994,2 53730  53.2189 328.2492 0001282  83.0929 277.0209 15.08824526 83102,6917.928,95.439,540.68,538.906,0.0
53730.0,STARLINK-4641,PAYLOAD,2024-03-01 17:05:58,15.08795848,0.0001255,53.2178,327.0629,99.4999,260.6135,-0.00023036,-3.948e-05,0.0,0 STARLINK-4641,1 53730U 22107AG  24061.71247999 -.00003948  00000-0 -23036-3 0  9994,2 53730  53.2178 327.0629 0001255  99.4999 260.6135 15.08795848 82544,6918.015,95.44,540.749,539.012,0.0
53730.0,STARLINK-4641,PAYLOAD,2024-03-01 21:52:05,15.08829086,0.0002088,53.2186,326.1712,124.1064,236.0126,2.4928e-05,1.08e-06,0.0,0 STARLINK-4641,1 53730U 22107AG  24061.91117395  .00000108  00000-0  24928-4 0  9997,2 53730  53.2186 326.1712 0002088 124.1064 236.0126 15.08829086 83179,6917.914,95.438,541.223,538.334,0.0
53730.0,STARLINK-4641,PAYLOAD,2024-03-02 01:02:51,15.08838807,0.0001421,53.2183,325.5754,95.637,264.4784,4.2461e-05,3.88e-06,0.0,0 STARLINK-4641,1 53730U 22107AG  24062.04364982  .00000388  00000-0  42461-4 0  9990,2 53730  53.2183 325.5754 0001421  95.6370 264.4784 15.08838807 82598,6917.884,95.438,540.732,538.766,0.0
53730.0,STARLINK-4641,PAYLOAD,2024-03-02 21:42:50,15.08850026,9.8e-05,53.2174,321.7058,112.432,247.6776,0.00027312,4.063e-05,0.0,0 STARLINK-4641,1 53730U 22107AG  24062.90475288  .00004063  00000-0  27312-3 0  9998,2 53730  53.2174 321.7058 0000980 112.4320 247.6776 15.08850026 83328,6917.85,95.437,540.393,539.037,0.0
